{"fetched_at":"2026-03-29T02:12:04Z","count":15717,"tles":[{"name":"GPS BIIR-5  (PRN 22)","line1":"1 26407U 00040A   26087.53223389 -.00000034  00000+0  00000+0 0  9997","line2":"2 26407  54.8698 218.3638 0122223 302.5125  64.7596  2.00569122188339","category":"GPS"}]}